start=new Date('2021-09-27T00:00:00.000Z').valueOf();
sats=[{"LAUNCH_DATE":"2021-05-04","REF_FRAME":"TEME","MEAN_MOTION":"15.06402405","MEAN_ELEMENT_THEORY":"SGP4","MEAN_MOTION_DDOT":"0.0000000000000","ARG_OF_PERICENTER":"80.9729","APOAPSIS":"548.740","RA_OF_ASC_NODE":"98.5726","FILE":"3129258","SITE":"AFETR","REV_AT_EPOCH":"2203","GP_ID":"185552945","DECAY_DATE":null,"OBJECT_TYPE":"PAYLOAD","SEMIMAJOR_AXIS":"6925.341","PERIAPSIS":"545.672","ECCENTRICITY":"0.00022150","TIME_SYSTEM":"UTC","OBJECT_NAME":"STARLINK-2674","OBJECT_ID":"2021-038B","BSTAR":"0.00010337000000","COUNTRY_CODE":"US","MEAN_ANOMALY":"279.1511","CENTER_NAME":"EARTH","RCS_SIZE":"LARGE","INCLINATION":"53.0552","EPHEMERIS_TYPE":"0","TLE_LINE2":"2 48354  53.0552  98.5726 0002215  80.9729 279.1511 15.06402405 22038","CLASSIFICATION_TYPE":"U","PERIOD":"95.592","EPOCH":"2021-09-26T05:34:02.570880","NORAD_CAT_ID":"48354","TLE_LINE1":"1 48354U 21038B   21269.23197420  .00001258  00000-0  10337-3 0  9999","ELEMENT_SET_NO":"999","MEAN_MOTION_DOT":"0.00001258"},{"LAUNCH_DATE":"2021-05-04","REF_FRAME":"TEME","MEAN_MOTION_DDOT":"0.0000000000000","MEAN_MOTION":"15.06382717","MEAN_ELEMENT_THEORY":"SGP4","ARG_OF_PERICENTER":"71.8667","GP_ID":"185552405","REV_AT_EPOCH":"2203","RA_OF_ASC_NODE":"98.5945","APOAPSIS":"548.877","SITE":"AFETR","FILE":"3129258","ECCENTRICITY":"0.00023260","TIME_SYSTEM":"UTC","OBJECT_NAME":"STARLINK-2635","SEMIMAJOR_AXIS":"6925.402","OBJECT_TYPE":"PAYLOAD","DECAY_DATE":null,"PERIAPSIS":"545.656","INCLINATION":"53.0553","OBJECT_ID":"2021-038C","BSTAR":"-0.00004612700000","CENTER_NAME":"EARTH","RCS_SIZE":"LARGE","MEAN_ANOMALY":"288.2575","COUNTRY_CODE":"US","TLE_LINE1":"1 48355U 21038C   21269.22830237 -.00000969  00000-0 -46127-4 0  9996","MEAN_MOTION_DOT":"-0.00000969","ELEMENT_SET_NO":"999","PERIOD":"95.593","TLE_LINE2":"2 48355  53.0553  98.5945 0002326  71.8667 288.2575 15.06382717 22030","EPHEMERIS_TYPE":"0","CLASSIFICATION_TYPE":"U","NORAD_CAT_ID":"48355","EPOCH":"2021-09-26T05:28:45.324768"},{"ARG_OF_PERICENTER":"73.5243","MEAN_MOTION_DDOT":"0.0000000000000","MEAN_ELEMENT_THEORY":"SGP4","MEAN_MOTION":"15.06383387","REF_FRAME":"TEME","LAUNCH_DATE":"2021-05-04","MEAN_MOTION_DOT":"-0.00002172","ELEMENT_SET_NO":"999","TLE_LINE1":"1 48356U 21038D   21269.22464394 -.00002172  00000-0 -12700-3 0  9991","NORAD_CAT_ID":"48356","EPOCH":"2021-09-26T05:23:29.236416","PERIOD":"95.593","TLE_LINE2":"2 48356  53.0669  98.5307 0001915  73.5243 286.5957 15.06383387 22032","EPHEMERIS_TYPE":"0","CLASSIFICATION_TYPE":"U","INCLINATION":"53.0669","CENTER_NAME":"EARTH","RCS_SIZE":"LARGE","COUNTRY_CODE":"US","MEAN_ANOMALY":"286.5957","BSTAR":"-0.00012700000000","OBJECT_ID":"2021-038D","OBJECT_NAME":"STARLINK-2637","TIME_SYSTEM":"UTC","ECCENTRICITY":"0.00019150","PERIAPSIS":"545.938","OBJECT_TYPE":"PAYLOAD","SEMIMAJOR_AXIS":"6925.399","DECAY_DATE":null,"GP_ID":"185552837","REV_AT_EPOCH":"2203","FILE":"3129258","SITE":"AFETR","RA_OF_ASC_NODE":"98.5307","APOAPSIS":"548.591"},{"MEAN_ELEMENT_THEORY":"SGP4","MEAN_MOTION":"15.06408966","MEAN_MOTION_DDOT":"0.0000000000000","LAUNCH_DATE":"2021-05-04","REF_FRAME":"TEME","ARG_OF_PERICENTER":"83.7104","OBJECT_TYPE":"PAYLOAD","SEMIMAJOR_AXIS":"6925.321","DECAY_DATE":null,"PERIAPSIS":"545.466","ECCENTRICITY":"0.00024840","TIME_SYSTEM":"UTC","OBJECT_NAME":"STARLINK-2636","RA_OF_ASC_NODE":"98.6225","APOAPSIS":"548.906","SITE":"AFETR","FILE":"3129258","GP_ID":"185553161","REV_AT_EPOCH":"2203","PERIOD":"95.592","EPHEMERIS_TYPE":"0","TLE_LINE2":"2 48357  53.0553  98.6225 0002484  83.7104 276.4168 15.06408966 22039","CLASSIFICATION_TYPE":"U","NORAD_CAT_ID":"48357","EPOCH":"2021-09-26T05:18:08.415936","TLE_LINE1":"1 48357U 21038E   21269.22093074  .00001235  00000-0  10182-3 0  9994","MEAN_MOTION_DOT":"0.00001235","ELEMENT_SET_NO":"999","OBJECT_ID":"2021-038E","BSTAR":"0.00010182000000","CENTER_NAME":"EARTH","RCS_SIZE":"LARGE","COUNTRY_CODE":"US","MEAN_ANOMALY":"276.4168","INCLINATION":"53.0553"},{"MEAN_MOTION_DDOT":"0.0000000000000","MEAN_MOTION":"15.06386391","MEAN_ELEMENT_THEORY":"SGP4","LAUNCH_DATE":"2021-05-04","REF_FRAME":"TEME","ARG_OF_PERICENTER":"85.0737","ECCENTRICITY":"0.00022830","OBJECT_NAME":"STARLINK-2624","TIME_SYSTEM":"UTC","DECAY_DATE":null,"OBJECT_TYPE":"PAYLOAD","SEMIMAJOR_AXIS":"6925.390","PERIAPSIS":"545.674","REV_AT_EPOCH":"2196","GP_ID":"185507790","APOAPSIS":"548.836","RA_OF_ASC_NODE":"100.4441","FILE":"3128274","SITE":"AFETR","TLE_LINE1":"1 48358U 21038F   21268.81915953  .00002916  00000-0  21467-3 0  9993","ELEMENT_SET_NO":"999","MEAN_MOTION_DOT":"0.00002916","EPHEMERIS_TYPE":"0","TLE_LINE2":"2 48358  53.0515 100.4441 0002283  85.0737 275.0512 15.06386391 21960","CLASSIFICATION_TYPE":"U","PERIOD":"95.593","EPOCH":"2021-09-25T19:39:35.383392","NORAD_CAT_ID":"48358","INCLINATION":"53.0515","BSTAR":"0.00021467000000","OBJECT_ID":"2021-038F","MEAN_ANOMALY":"275.0512","COUNTRY_CODE":"US","CENTER_NAME":"EARTH","RCS_SIZE":"LARGE"},{"ARG_OF_PERICENTER":"88.2668","REF_FRAME":"TEME","LAUNCH_DATE":"2021-05-04","MEAN_MOTION_DDOT":"0.0000000000000","MEAN_MOTION":"15.06396875","MEAN_ELEMENT_THEORY":"SGP4","INCLINATION":"53.0554","RCS_SIZE":"LARGE","CENTER_NAME":"EARTH","MEAN_ANOMALY":"271.8575","COUNTRY_CODE":"US","BSTAR":"-0.00003893400000","OBJECT_ID":"2021-038G","MEAN_MOTION_DOT":"-0.00000862","ELEMENT_SET_NO":"999","TLE_LINE1":"1 48359U 21038G   21268.81547919 -.00000862  00000-0 -38934-4 0  9995","NORAD_CAT_ID":"48359","EPOCH":"2021-09-25T19:34:17.402016","PERIOD":"95.592","CLASSIFICATION_TYPE":"U","TLE_LINE2":"2 48359  53.0554 100.4404 0002221  88.2668 271.8575 15.06396875 21964","EPHEMERIS_TYPE":"0","GP_ID":"185508006","REV_AT_EPOCH":"2196","FILE":"3128274","SITE":"AFETR","RA_OF_ASC_NODE":"100.4404","APOAPSIS":"548.761","OBJECT_NAME":"STARLINK-2628","TIME_SYSTEM":"UTC","ECCENTRICITY":"0.00022210","PERIAPSIS":"545.685","OBJECT_TYPE":"PAYLOAD","SEMIMAJOR_AXIS":"6925.358","DECAY_DATE":null},{"MEAN_MOTION":"15.06399117","MEAN_ELEMENT_THEORY":"SGP4","MEAN_MOTION_DDOT":"0.0000000000000","REF_FRAME":"TEME","LAUNCH_DATE":"2021-05-04","ARG_OF_PERICENTER":"81.9565","PERIAPSIS":"545.638","DECAY_DATE":null,"SEMIMAJOR_AXIS":"6925.351","OBJECT_TYPE":"PAYLOAD","TIME_SYSTEM":"UTC","OBJECT_NAME":"STARLINK-2622","ECCENTRICITY":"0.00022790","SITE":"AFETR","FILE":"3129566","APOAPSIS":"548.795","RA_OF_ASC_NODE":"96.5789","REV_AT_EPOCH":"2209","GP_ID":"185583810","EPOCH":"2021-09-26T16:10:59.396448","NORAD_CAT_ID":"48360","EPHEMERIS_TYPE":"0","TLE_LINE2":"2 48360  53.0560  96.5789 0002279  81.9565 278.1683 15.06399117 22090","CLASSIFICATION_TYPE":"U","PERIOD":"95.592","ELEMENT_SET_NO":"999","MEAN_MOTION_DOT":"-0.00000151","TLE_LINE1":"1 48360U 21038H   21269.67429857 -.00000151  00000-0  88012-5 0  9995","COUNTRY_CODE":"US","MEAN_ANOMALY":"278.1683","RCS_SIZE":"LARGE","CENTER_NAME":"EARTH","OBJECT_ID":"2021-038H","BSTAR":"0.00000880120000","INCLINATION":"53.0560"},{"RA_OF_ASC_NODE":"96.6830","APOAPSIS":"548.333","FILE":"3129566","SITE":"AFETR","GP_ID":"185583055","REV_AT_EPOCH":"2209","SEMIMAJOR_AXIS":"6925.331","OBJECT_TYPE":"PAYLOAD","DECAY_DATE":null,"PERIAPSIS":"546.060","ECCENTRICITY":"0.00016410","OBJECT_NAME":"STARLINK-2591","TIME_SYSTEM":"UTC","OBJECT_ID":"2021-038J","BSTAR":"0.00010474000000","RCS_SIZE":"LARGE","CENTER_NAME":"EARTH","MEAN_ANOMALY":"261.4937","COUNTRY_CODE":"US","INCLINATION":"53.0552","PERIOD":"95.592","TLE_LINE2":"2 48361  53.0552  96.6830 0001641  98.6238 261.4937 15.06405583 22096","CLASSIFICATION_TYPE":"U","EPHEMERIS_TYPE":"0","NORAD_CAT_ID":"48361","EPOCH":"2021-09-26T16:05:40.413696","TLE_LINE1":"1 48361U 21038J   21269.67060664  .00001279  00000-0  10474-3 0  9999","MEAN_MOTION_DOT":"0.00001279","ELEMENT_SET_NO":"999","LAUNCH_DATE":"2021-05-04","REF_FRAME":"TEME","MEAN_MOTION":"15.06405583","MEAN_ELEMENT_THEORY":"SGP4","MEAN_MOTION_DDOT":"0.0000000000000","ARG_OF_PERICENTER":"98.6238"},{"MEAN_ANOMALY":"277.1057","COUNTRY_CODE":"US","RCS_SIZE":"LARGE","CENTER_NAME":"EARTH","OBJECT_ID":"2021-038K","BSTAR":"-0.00004429500000","INCLINATION":"53.0525","EPOCH":"2021-09-26T18:58:37.311168","NORAD_CAT_ID":"48362","CLASSIFICATION_TYPE":"U","TLE_LINE2":"2 48362  53.0525  95.6156 0002198  83.0181 277.1057 15.04762563 22123","EPHEMERIS_TYPE":"0","PERIOD":"95.696","ELEMENT_SET_NO":"999","MEAN_MOTION_DOT":"-0.00000909","TLE_LINE1":"1 48362U 21038K   21269.79070962 -.00000909  00000-0 -44295-4 0  9995","SITE":"AFETR","FILE":"3129566","APOAPSIS":"553.760","RA_OF_ASC_NODE":"95.6156","REV_AT_EPOCH":"2212","GP_ID":"185583595","PERIAPSIS":"550.713","DECAY_DATE":null,"SEMIMAJOR_AXIS":"6930.372","OBJECT_TYPE":"PAYLOAD","OBJECT_NAME":"STARLINK-2578","TIME_SYSTEM":"UTC","ECCENTRICITY":"0.00021980","ARG_OF_PERICENTER":"83.0181","REF_FRAME":"TEME","LAUNCH_DATE":"2021-05-04","MEAN_ELEMENT_THEORY":"SGP4","MEAN_MOTION":"15.04762563","MEAN_MOTION_DDOT":"0.0000000000000"},{"TLE_LINE1":"1 48363U 21038L   21269.77981526 -.00002732  00000-0 -16446-3 0  9993","ELEMENT_SET_NO":"999","MEAN_MOTION_DOT":"-0.00002732","TLE_LINE2":"2 48363  53.0553  91.1054 0001739  92.5419 267.5769 15.06429496 22188","EPHEMERIS_TYPE":"0","CLASSIFICATION_TYPE":"U","PERIOD":"95.590","EPOCH":"2021-09-26T18:42:56.038464","NORAD_CAT_ID":"48363","INCLINATION":"53.0553","OBJECT_ID":"2021-038L","BSTAR":"-0.00016446000000","COUNTRY_CODE":"US","MEAN_ANOMALY":"267.5769","RCS_SIZE":"LARGE","CENTER_NAME":"EARTH","ECCENTRICITY":"0.00017390","OBJECT_NAME":"STARLINK-2626","TIME_SYSTEM":"UTC","DECAY_DATE":null,"OBJECT_TYPE":"PAYLOAD","SEMIMAJOR_AXIS":"6925.258","PERIAPSIS":"545.919","REV_AT_EPOCH":"2218","GP_ID":"185583487","APOAPSIS":"548.327","RA_OF_ASC_NODE":"91.1054","SITE":"AFETR","FILE":"3129566","ARG_OF_PERICENTER":"92.5419","MEAN_MOTION_DDOT":"0.0000000000000","MEAN_ELEMENT_THEORY":"SGP4","MEAN_MOTION":"15.06429496","LAUNCH_DATE":"2021-05-04","REF_FRAME":"TEME"}];
